#aV2021  7 20  0  0  0.00000000     288 DD+AD WGS84 FIT  NGA
## 2167 172800.00000000   300.00000000 59415 0.0000000000000
+   32     1  2  3  4  5  6  7  8  9 10 11 12 13 14 15 16 17
+         18 19 20 21 22 23 24 25 26 27 28 29 30 31 32  0  0
+          0  0  0  0  0  0  0  0  0  0  0  0  0  0  0  0  0
+          0  0  0  0  0  0  0  0  0  0  0  0  0  0  0  0  0
+          0  0  0  0  0  0  0  0  0  0  0  0  0  0  0  0  0
++         2  2  2  2  2  2  2  2  2  2  2  2  2  2  2  2  2
++         2  2  2  2  2  2  2  2  2  2  2  2  2  2  2  0  0
++         0  0  0  0  0  0  0  0  0  0  0  0  0  0  0  0  0
++         0  0  0  0  0  0  0  0  0  0  0  0  0  0  0  0  0
++         0  0  0  0  0  0  0  0  0  0  0  0  0  0  0  0  0
%c cc cc ccc ccc cccc cccc cccc cccc ccccc ccccc ccccc ccccc
%c cc cc ccc ccc cccc cccc cccc cccc ccccc ccccc ccccc ccccc
%f  0.0000000  0.000000000  0.00000000000  0.000000000000000
%f  0.0000000  0.000000000  0.00000000000  0.000000000000000
%i    0    0    0    0      0      0      0      0         0
%i    0    0    0    0      0      0      0      0         0
/*      NGA, ST. LOUIS,MO.                                  
/*   EPHEMERIS COMPUTED FROM 2 DAYS OF DATA                 
/*   EPOCHA v6 SMOOTHER                                     
/*   G2139 IERS2010 SATIGS SATAPC                           
*  2021  7 20 18 50  0.00000000
P  1  11873.581763  13382.949714 -20015.735813    622.326228                    
V  1 -24655.640871    475.107131 -14175.566679     -0.114917                    
P  2  13566.687265 -14064.102539  18671.589727   -620.920546                    
V  2  22385.849919   -451.182108 -17152.954087     -0.025957                    
P  3  11895.152497  23708.102489  -2348.771549   -226.689452                    
V  3  -3513.199254  -1264.763033 -31709.189231     -0.119505                    
P  4   4307.003635  18143.493038  18897.179466   -202.723553                    
V  4 -13861.608890  19647.891555 -15770.680698     -0.006886                    
P  5  -3605.675883 -22745.376028  12918.865618    -48.512906                    
V  5  11070.110501  12807.396418  25496.016378     -0.011569                    
P  6  23271.339624  -7147.729358  10746.203081     43.000724                    
V  6  13509.281726   1752.701009 -28178.013014      0.056725                    
P  7  23878.289572   7328.039603  10094.257051    206.887423                    
V  7 -12161.052025   2238.589143  27675.876909      0.087058                    
P  8  -3862.696597  23477.758704 -11488.375604    -29.525190                    
V  8  -9220.871839  11672.222677  27280.358237     -0.014394                    
P  9  13307.842603   7647.630145  21615.158416   -356.190778                    
V  9 -13360.950554  24171.766315   -348.166982     -0.013806                    
P 10 -17171.882471  -2082.803858 -20115.610226   -165.947643                    
V 10 -12200.258580 -22632.114016  12416.772868     -0.076106                    
P 11  15136.771880 -11943.712726  18248.954619     20.024302                    
V 11  23084.641247   2872.245555 -17254.452196      0.081448                    
P 12  -9787.158632 -24621.402387  -2966.754825    -71.345991                    
V 12   3551.039299   2093.124272 -31648.168478     -0.052942                    
P 13  12314.354008 -22738.374309  -5858.027224    160.273269                    
V 13   6489.895096  -4211.662499  30839.260490      0.050084                    
P 14  17105.292510   1888.302209 -20248.022980     42.763283                    
V 14  11001.779081  23249.650974  11422.885668     -0.089103                    
P 15    521.290549 -23774.463880 -11835.387742   -134.168486                    
V 15   8820.591228 -12182.145178  26019.559733      0.026613                    
P 16  -3787.983933  19504.325272  17149.242946   -360.277738                    
V 16 -11121.234878 -19536.101304  19927.691042     -0.061595                    
P 17  18453.686539  -6946.486521 -17369.526022    476.790174                    
V 17 -11357.951590  19885.922457 -19537.018068      0.058174                    
P 18 -24998.148077  -5464.519182   7257.105239    339.559209                    
V 18   9249.789471  -2196.241017  30070.835749     -0.027991                    
P 19  19554.272253 -14019.361441 -11368.842003     28.866845                    
V 19  -6669.792608  12488.578085 -27693.549162      0.049616                    
P 20   5776.970227 -16372.290835  20133.308783    520.078918                    
V 20  16837.392204  19375.389496  10646.984145     -0.001908                    
P 21   3707.082646  14658.011246 -21170.124865    132.436244                    
V 21 -28437.318210   2291.287909  -2787.313458      0.022891                    
P 22   7958.702416  23373.628425  -9871.118321   -558.720025                    
V 22  -9989.799144  -8533.988996 -27550.949115      0.095173                    
P 23 -18926.904068 -13013.331814 -13411.490767     81.933888                    
V 23  -7137.423155 -15524.650794  25118.854327     -0.051900                    
P 24  -7139.932582 -15037.047182 -21011.375202    181.316824                    
V 24  26024.646026  -2516.815575  -6727.602148      0.137126                    
P 25 -16975.072077 -19258.955052   7067.368142    176.918981                    
V 25  -2503.884587  -9260.142533 -29863.657014      0.066581                    
P 26 -11445.650321  10855.777534  21287.939360    112.919846                    
V 26 -15187.796098 -22650.622623   3647.226768      0.045528                    
P 27 -11838.422937  23476.127115  -2067.169224   -165.893289                    
V 27  -3502.056892    792.994822  32178.042443     -0.058524                    
P 28  14179.362113  -4252.744444 -21497.730363    534.459063                    
V 28  11700.775056  26090.279004   2677.432645     -0.066062                    
P 29 -11066.167910  -9792.889540  22016.290556   -383.318783                    
V 29  15827.776932 -23114.430141  -2377.353711     -0.061291                    
P 30  26578.101795  -1014.104993  -2158.963568   -453.021847                    
V 30   2740.626246   3432.782664  30890.773703     -0.043443                    
P 31 -22540.048273   7957.128355  11971.994849   -129.725481                    
V 31 -15127.257278  -2523.913026 -26147.464113     -0.021260                    
P 32 -18545.988068  10207.943463 -15818.027790     12.981770                    
V 32   8144.596927 -18799.835686 -21693.640487     -0.021670                    
EOF
